[{"OBJECT_NAME":"STARLINK-5024","OBJECT_ID":"2022-119R","EPOCH":"2026-03-10T00:00:02.999808","MEAN_MOTION":15.8880885,"ECCENTRICITY":0.00040618,"INCLINATION":53.2003,"RA_OF_ASC_NODE":241.1302,"ARG_OF_PERICENTER":317.3557,"MEAN_ANOMALY":180.8444,"EPHEMERIS_TYPE":0,"CLASSIFICATION_TYPE":"U","NORAD_CAT_ID":53901,"ELEMENT_SET_NO":999,"REV_AT_EPOCH":602,"BSTAR":0.00090312395,"MEAN_MOTION_DOT":0.00268314,"MEAN_MOTION_DDOT":0},{"OBJECT_NAME":"ARIANE 5 R\/B","OBJECT_ID":"2008-030C","EPOCH":"2026-03-09T18:56:19.870368","MEAN_MOTION":2.59370013,"ECCENTRICITY":0.70302325,"INCLINATION":1.7268,"RA_OF_ASC_NODE":38.5155,"ARG_OF_PERICENTER":183.5104,"MEAN_ANOMALY":166.3077,"EPHEMERIS_TYPE":0,"CLASSIFICATION_TYPE":"U","NORAD_CAT_ID":33057,"ELEMENT_SET_NO":999,"REV_AT_EPOCH":15664,"BSTAR":0.00073097558,"MEAN_MOTION_DOT":2.237e-5,"MEAN_MOTION_DDOT":0}]
